GLOBALSTAR M067         
1 32263U 07048A   25150.55334441 -.00000063  00000+0  25873-3 0  9994
2 32263  51.9726  87.5281 0001105 333.9307 197.5826 12.40672906807295
GLOBALSTAR M070         
1 32264U 07048B   25150.81865743 -.00000091  00000+0  72000-4 0  9994
2 32264  51.9726 181.4155 0000268 112.7886  57.7652 12.62318972811477
GLOBALSTAR M068         
1 32266U 07048D   25150.88590833 -.00000096  00000+0  44678-4 0  9993
2 32266  51.9906 354.9973 0001853  91.6517 281.4099 12.62823527815372
GLOBALSTAR M079         
1 37188U 10054A   25150.85959575 -.00000098  00000+0  32653-4 0  9993
2 37188  52.0017 192.5336 0000300 217.1623 313.8456 12.62264883674265
GLOBALSTAR M074         
1 37189U 10054B   25150.88624890 -.00000097  00000+0  35549-4 0  9992
2 37189  51.9995 191.7789 0000073  56.0315 115.1497 12.62270138674872
GLOBALSTAR M076         
1 37190U 10054C   25150.83345779 -.00000081  00000+0  12780-3 0  9999
2 37190  52.0008 192.1080 0000141 275.5381 256.1632 12.62263355674585
GLOBALSTAR M077         
1 37191U 10054D   25150.41989203 -.00000120  00000+0 -89245-4 0  9996
2 37191  52.0044 150.2179 0000145  25.0801 126.0616 12.62268376674900
